{
  "type": "FeatureCollection",
  "features": [
    {
      "type": "Feature",
      "properties": {
        "norad_id": 35605,
        "name": "COSMOS 2251 DEB",
        "group": "cosmos-2251-debris",
        "lat": 68.48394304503543,
        "lon": 95.00786266278969,
        "alt_km": 462.3176118203364,
        "timestamp": "2025-12-19T08:58:49.733385+00:00",
        "meta_object_name": "COSMOS 2251 DEB",
        "meta_object_id": "1993-036AMY",
        "meta_epoch": "2025-12-16T05:30:02.725344",
        "meta_mean_motion": 15.35586787,
        "meta_eccentricity": 0.00242235,
        "meta_inclination": 73.8701,
        "meta_ra_of_asc_node": 329.0606,
        "meta_arg_of_pericenter": 257.5437,
        "meta_mean_anomaly": 102.3057,
        "meta_ephemeris_type": 0,
        "meta_classification_type": "U",
        "meta_norad_cat_id": 35605,
        "meta_element_set_no": 999,
        "meta_rev_at_epoch": 66025,
        "meta_bstar": 0.0050760725,
        "meta_mean_motion_dot": 0.00181517,
        "meta_mean_motion_ddot": 0,
        "tle_line1": "1 35605U 93036AMY 25350.22919821  .00181517  00000+0  50761-2 0  9992",
        "tle_line2": "2 35605  73.8701 329.0606 0024223 257.5437 102.3057 15.35586787660251"
      },
      "geometry": {
        "type": "Point",
        "coordinates": [
          95.00786266278969,
          68.48394304503543
        ]
      }
    },
    {
      "type": "Feature",
      "properties": {
        "norad_id": 35606,
        "name": "COSMOS 2251 DEB",
        "group": "cosmos-2251-debris",
        "lat": -2.9568480671264226,
        "lon": -178.91696793282586,
        "alt_km": 788.2490456095611,
        "timestamp": "2025-12-19T08:58:49.733395+00:00",
        "meta_object_name": "COSMOS 2251 DEB",
        "meta_object_id": "1993-036AMZ",
        "meta_epoch": "2025-12-17T18:27:28.365120",
        "meta_mean_motion": 13.41216697,
        "meta_eccentricity": 0.04572108,
        "meta_inclination": 73.8105,
        "meta_ra_of_asc_node": 2.7804,
        "meta_arg_of_pericenter": 207.7717,
        "meta_mean_anomaly": 149.8287,
        "meta_ephemeris_type": 0,
        "meta_classification_type": "U",
        "meta_norad_cat_id": 35606,
        "meta_element_set_no": 999,
        "meta_rev_at_epoch": 61107,
        "meta_bstar": 0.0003718916,
        "meta_mean_motion_dot": 3.59e-06,
        "meta_mean_motion_ddot": 0,
        "tle_line1": "1 35606U 93036AMZ 25351.76907830  .00000359  00000+0  37189-3 0  9994",
        "tle_line2": "2 35606  73.8105   2.7804 0457210 207.7717 149.8287 13.41216697611071"
      },
      "geometry": {
        "type": "Point",
        "coordinates": [
          -178.91696793282586,
          -2.9568480671264226
        ]
      }
    },
    {
      "type": "Feature",
      "properties": {
        "norad_id": 35611,
        "name": "COSMOS 2251 DEB",
        "group": "cosmos-2251-debris",
        "lat": -31.068223850645353,
        "lon": -3.691005232202028,
        "alt_km": 643.6366932896526,
        "timestamp": "2025-12-19T08:58:49.733405+00:00",
        "meta_object_name": "COSMOS 2251 DEB",
        "meta_object_id": "1993-036ANE",
        "meta_epoch": "2025-12-17T21:47:16.724544",
        "meta_mean_motion": 14.72986484,
        "meta_eccentricity": 0.00214069,
        "meta_inclination": 74.0185,
        "meta_ra_of_asc_node": 169.2246,
        "meta_arg_of_pericenter": 241.9604,
        "meta_mean_anomaly": 117.9404,
        "meta_ephemeris_type": 0,
        "meta_classification_type": "U",
        "meta_norad_cat_id": 35611,
        "meta_element_set_no": 999,
        "meta_rev_at_epoch": 87366,
        "meta_bstar": 0.0018150701,
        "meta_mean_motion_dot": 0.00011685,
        "meta_mean_motion_ddot": 0,
        "tle_line1": "1 35611U 93036ANE 25351.90783246  .00011685  00000+0  18151-2 0  9990",
        "tle_line2": "2 35611  74.0185 169.2246 0021406 241.9604 117.9404 14.72986484873661"
      },
      "geometry": {
        "type": "Point",
        "coordinates": [
          -3.691005232202028,
          -31.068223850645353
        ]
      }
    },
    {
      "type": "Feature",
      "properties": {
        "norad_id": 35614,
        "name": "COSMOS 2251 DEB",
        "group": "cosmos-2251-debris",
        "lat": -11.527243369064262,
        "lon": 137.96137501503947,
        "alt_km": 626.0607513657742,
        "timestamp": "2025-12-19T08:58:49.733415+00:00",
        "meta_object_name": "COSMOS 2251 DEB",
        "meta_object_id": "1993-036ANH",
        "meta_epoch": "2025-12-18T14:06:30.738528",
        "meta_mean_motion": 14.67062492,
        "meta_eccentricity": 0.00753345,
        "meta_inclination": 73.9588,
        "meta_ra_of_asc_node": 316.1215,
        "meta_arg_of_pericenter": 169.1076,
        "meta_mean_anomaly": 191.1747,
        "meta_ephemeris_type": 0,
        "meta_classification_type": "U",
        "meta_norad_cat_id": 35614,
        "meta_element_set_no": 999,
        "meta_rev_at_epoch": 87815,
        "meta_bstar": 0.00056217357,
        "meta_mean_motion_dot": 3.259e-05,
        "meta_mean_motion_ddot": 0,
        "tle_line1": "1 35614U 93036ANH 25352.58785577  .00003259  00000+0  56217-3 0  9991",
        "tle_line2": "2 35614  73.9588 316.1215 0075334 169.1076 191.1747 14.67062492878152"
      },
      "geometry": {
        "type": "Point",
        "coordinates": [
          137.96137501503947,
          -11.527243369064262
        ]
      }
    },
    {
      "type": "Feature",
      "properties": {
        "norad_id": 35645,
        "name": "COSMOS 2251 DEB",
        "group": "cosmos-2251-debris",
        "lat": 56.650810358114946,
        "lon": -130.60749596116133,
        "alt_km": 752.8736645951776,
        "timestamp": "2025-12-19T08:58:49.733426+00:00",
        "meta_object_name": "COSMOS 2251 DEB",
        "meta_object_id": "1993-036ANL",
        "meta_epoch": "2025-12-18T22:27:29.455776",
        "meta_mean_motion": 14.45669,
        "meta_eccentricity": 0.00697579,
        "meta_inclination": 73.9649,
        "meta_ra_of_asc_node": 76.1263,
        "meta_arg_of_pericenter": 233.1749,
        "meta_mean_anomaly": 126.2997,
        "meta_ephemeris_type": 0,
        "meta_classification_type": "U",
        "meta_norad_cat_id": 35645,
        "meta_element_set_no": 999,
        "meta_rev_at_epoch": 86861,
        "meta_bstar": 0.0015187953,
        "meta_mean_motion_dot": 5.513e-05,
        "meta_mean_motion_ddot": 0,
        "tle_line1": "1 35645U 93036ANL 25352.93575759  .00005513  00000+0  15188-2 0  9999",
        "tle_line2": "2 35645  73.9649  76.1263 0069757 233.1749 126.2997 14.45669000868611"
      },
      "geometry": {
        "type": "Point",
        "coordinates": [
          -130.60749596116133,
          56.650810358114946
        ]
      }
    },
    {
      "type": "Feature",
      "properties": {
        "norad_id": 35646,
        "name": "COSMOS 2251 DEB",
        "group": "cosmos-2251-debris",
        "lat": 53.910841312719924,
        "lon": 68.88925560386642,
        "alt_km": 1128.3779021011533,
        "timestamp": "2025-12-19T08:58:49.733436+00:00",
        "meta_object_name": "COSMOS 2251 DEB",
        "meta_object_id": "1993-036ANM",
        "meta_epoch": "2025-12-18T13:20:49.282080",
        "meta_mean_motion": 13.40829033,
        "meta_eccentricity": 0.04564144,
        "meta_inclination": 73.8718,
        "meta_ra_of_asc_node": 46.7997,
        "meta_arg_of_pericenter": 156.0103,
        "meta_mean_anomaly": 279.1958,
        "meta_ephemeris_type": 0,
        "meta_classification_type": "U",
        "meta_norad_cat_id": 35646,
        "meta_element_set_no": 999,
        "meta_rev_at_epoch": 81936,
        "meta_bstar": 0.00040845832,
        "meta_mean_motion_dot": 3.96e-06,
        "meta_mean_motion_ddot": 0,
        "tle_line1": "1 35646U 93036ANM 25352.55612595  .00000396  00000+0  40846-3 0  9992",
        "tle_line2": "2 35646  73.8718  46.7997 0456414 156.0103 279.1958 13.40829033819363"
      },
      "geometry": {
        "type": "Point",
        "coordinates": [
          68.88925560386642,
          53.910841312719924
        ]
      }
    },
    {
      "type": "Feature",
      "properties": {
        "norad_id": 35647,
        "name": "COSMOS 2251 DEB",
        "group": "cosmos-2251-debris",
        "lat": 33.76632734341984,
        "lon": 91.18231014399102,
        "alt_km": 762.4430823660905,
        "timestamp": "2025-12-19T08:58:49.733446+00:00",
        "meta_object_name": "COSMOS 2251 DEB",
        "meta_object_id": "1993-036ANN",
        "meta_epoch": "2025-12-16T12:07:42.204576",
        "meta_mean_motion": 14.43653976,
        "meta_eccentricity": 0.00457493,
        "meta_inclination": 74.0235,
        "meta_ra_of_asc_node": 287.5596,
        "meta_arg_of_pericenter": 25.7805,
        "meta_mean_anomaly": 334.5617,
        "meta_ephemeris_type": 0,
        "meta_classification_type": "U",
        "meta_norad_cat_id": 35647,
        "meta_element_set_no": 999,
        "meta_rev_at_epoch": 67718,
        "meta_bstar": 0.00059115508,
        "meta_mean_motion_dot": 2.005e-05,
        "meta_mean_motion_ddot": 0,
        "tle_line1": "1 35647U 93036ANN 25350.50534959  .00002005  00000+0  59116-3 0  9992",
        "tle_line2": "2 35647  74.0235 287.5596 0045749  25.7805 334.5617 14.43653976677182"
      },
      "geometry": {
        "type": "Point",
        "coordinates": [
          91.18231014399102,
          33.76632734341984
        ]
      }
    }
  ]
}